[{"OBJECT_NAME":"HULIANWANG DIGUI-64","OBJECT_ID":"2025-174G","EPOCH":"2026-03-09T23:10:48.024768","MEAN_MOTION":13.24422165,"ECCENTRICITY":0.00012524,"INCLINATION":86.4872,"RA_OF_ASC_NODE":285.482,"ARG_OF_PERICENTER":95.7947,"MEAN_ANOMALY":264.333,"EPHEMERIS_TYPE":0,"CLASSIFICATION_TYPE":"U","NORAD_CAT_ID":65170,"ELEMENT_SET_NO":999,"REV_AT_EPOCH":2765,"BSTAR":3.459576e-5,"MEAN_MOTION_DOT":3.0e-7,"MEAN_MOTION_DDOT":0},{"OBJECT_NAME":"COSMOS 312","OBJECT_ID":"1969-103A","EPOCH":"2026-03-09T22:01:06.309696","MEAN_MOTION":13.27208448,"ECCENTRICITY":0.00223589,"INCLINATION":74.0198,"RA_OF_ASC_NODE":227.3558,"ARG_OF_PERICENTER":126.3711,"MEAN_ANOMALY":348.3587,"EPHEMERIS_TYPE":0,"CLASSIFICATION_TYPE":"U","NORAD_CAT_ID":4254,"ELEMENT_SET_NO":999,"REV_AT_EPOCH":72647,"BSTAR":5.30598e-7,"MEAN_MOTION_DOT":-1.9e-7,"MEAN_MOTION_DDOT":0}]
